$$SOE
2460721.500000000, A.D. 2025-Feb-15 00:00:00.0000, -3.445413449481579E+08, -1.338749785229736E+08, 9.648846297517031E+06,
2460728.500000000, A.D. 2025-Feb-22 00:00:00.0000, -3.417281549194121E+08, -1.448858287247671E+08, 9.166219803128071E+06,
2460735.500000000, A.D. 2025-Mar-01 00:00:00.0000, -3.385908509348524E+08, -1.557593396134763E+08, 8.674898897988372E+06,
2460742.500000000, A.D. 2025-Mar-08 00:00:00.0000, -3.351362990755261E+08, -1.664869891465118E+08, 8.175449030306436E+06,
2460749.500000000, A.D. 2025-Mar-15 00:00:00.0000, -3.313714924786944E+08, -1.770605922779417E+08, 7.668429599542856E+06,
2460756.500000000, A.D. 2025-Mar-22 00:00:00.0000, -3.273035390818229E+08, -1.874722940103977E+08, 7.154393825063072E+06,
2460763.500000000, A.D. 2025-Mar-29 00:00:00.0000, -3.229396489257972E+08, -1.977145643703978E+08, 6.633888354862206E+06,
2460770.500000000, A.D. 2025-Apr-05 00:00:00.0000, -3.182871206673719E+08, -2.077801922312368E+08, 6.107452837653145E+06,
2460777.500000000, A.D. 2025-Apr-12 00:00:00.0000, -3.133533291944090E+08, -2.176622779323970E+08, 5.575619640194118E+06,
2460784.500000000, A.D. 2025-Apr-19 00:00:00.0000, -3.081457144924678E+08, -2.273542256252299E+08, 5.038913651523948E+06,
2460791.500000000, A.D. 2025-Apr-26 00:00:00.0000, -3.026717714503946E+08, -2.368497355954504E+08, 4.497852129008174E+06,
2460798.500000000, A.D. 2025-May-03 00:00:00.0000, -2.969390404523478E+08, -2.461427965901952E+08, 3.952944573924661E+06,
2460805.500000000, A.D. 2025-May-10 00:00:00.0000, -2.909550986922790E+08, -2.552276781855860E+08, 3.404692631576136E+06,
2460812.500000000, A.D. 2025-May-17 00:00:00.0000, -2.847275521418771E+08, -2.640989232760152E+08, 2.853590006449431E+06,
2460819.500000000, A.D. 2025-May-24 00:00:00.0000, -2.782640279672800E+08, -2.727513407741590E+08, 2.300122369589984E+06,
2460826.500000000, A.D. 2025-May-31 00:00:00.0000, -2.715721669459420E+08, -2.811799982397276E+08, 1.744767243120044E+06,
2460833.500000000, A.D. 2025-Jun-07 00:00:00.0000, -2.646596162528869E+08, -2.893802132561895E+08, 1.187993995107025E+06,
2460840.500000000, A.D. 2025-Jun-14 00:00:00.0000, -2.575340249480040E+08, -2.973475442426202E+08, 6.302641051186770E+05,
2460847.500000000, A.D. 2025-Jun-21 00:00:00.0000, -2.502030409153647E+08, -3.050777839911285E+08, 7.203131941998005E+04,
2460854.500000000, A.D. 2025-Jun-28 00:00:00.0000, -2.426743060967572E+08, -3.125669541827444E+08, -4.862584487627447E+05,
2460861.500000000, A.D. 2025-Jul-05 00:00:00.0000, -2.349554515074191E+08, -3.198112987386618E+08, -1.044167160102367E+06,
2460868.500000000, A.D. 2025-Jul-12 00:00:00.0000, -2.270540931956811E+08, -3.268072768219551E+08, -1.601264589150116E+06,
2460875.500000000, A.D. 2025-Jul-19 00:00:00.0000, -2.189778289276648E+08, -3.335515560730017E+08, -2.157128229247391E+06,
2460882.500000000, A.D. 2025-Jul-26 00:00:00.0000, -2.107342353588184E+08, -3.400410061430517E+08, -2.711343187686071E+06,
2460889.500000000, A.D. 2025-Aug-02 00:00:00.0000, -2.023308656007926E+08, -3.462726925119387E+08, -3.263502076645434E+06,
2460896.500000000, A.D. 2025-Aug-09 00:00:00.0000, -1.937752471363863E+08, -3.522438706108114E+08, -3.813204904288217E+06,
2460903.500000000, A.D. 2025-Aug-16 00:00:00.0000, -1.850748799831130E+08, -3.579519803174075E+08, -4.360058979083195E+06,
2460910.500000000, A.D. 2025-Aug-23 00:00:00.0000, -1.762372347911267E+08, -3.633946408101857E+08, -4.903678853571981E+06,
2460917.500000000, A.D. 2025-Aug-30 00:00:00.0000, -1.672697505258853E+08, -3.685696450689486E+08, -5.443686280038893E+06,
2460924.500000000, A.D. 2025-Sep-06 00:00:00.0000, -1.581798331337558E+08, -3.734749530218973E+08, -5.979709966825843E+06,
2460931.500000000, A.D. 2025-Sep-13 00:00:00.0000, -1.489748568415134E+08, -3.781086858212831E+08, -6.511385185555845E+06,
2460938.500000000, A.D. 2025-Sep-20 00:00:00.0000, -1.396621647978601E+08, -3.824691228927314E+08, -7.038353664505571E+06,
2460945.500000000, A.D. 2025-Sep-27 00:00:00.0000, -1.302490679822584E+08, -3.865546986478660E+08, -7.560263611402005E+06,
2460952.500000000, A.D. 2025-Oct-04 00:00:00.0000, -1.207428443828864E+08, -3.903639983203310E+08, -8.076769636945128E+06,
2460959.500000000, A.D. 2025-Oct-11 00:00:00.0000, -1.111507388028701E+08, -3.938957538659998E+08, -8.587532622211426E+06,
2460966.500000000, A.D. 2025-Oct-18 00:00:00.0000, -1.014799629969656E+08, -3.971488401987688E+08, -9.092219578828484E+06,
2460973.500000000, A.D. 2025-Oct-25 00:00:00.0000, -9.173769598517470E+07, -4.001222717477562E+08, -9.590503514393777E+06,
2460980.500000000, A.D. 2025-Nov-01 00:00:00.0000, -8.193108449033543E+07, -4.028151993179394E+08, -1.008206330615398E+07,
2460987.500000000, A.D. 2025-Nov-08 00:00:00.0000, -7.206724345280044E+07, -4.052269072839405E+08, -1.056658358932665E+07,
2460994.500000000, A.D. 2025-Nov-15 00:00:00.0000, -6.215325646327997E+07, -4.073568111738291E+08, -1.104375467898238E+07,
2461001.500000000, A.D. 2025-Nov-22 00:00:00.0000, -5.219617570089041E+07, -4.092044554208061E+08, -1.151327254497588E+07,
2461008.500000000, A.D. 2025-Nov-29 00:00:00.0000, -4.220302151994138E+07, -4.107695101453810E+08, -1.197483873363554E+07,
2461015.500000000, A.D. 2025-Dec-06 00:00:00.0000, -3.218078395364473E+07, -4.120517671007848E+08, -1.242816003894183E+07,
2461022.500000000, A.D. 2025-Dec-13 00:00:00.0000, -2.213642569177219E+07, -4.130511381483554E+08, -1.287294823892793E+07,
2461029.500000000, A.D. 2025-Dec-20 00:00:00.0000, -1.207688303057056E+07, -4.137676552375892E+08, -1.330892013451874E+07,
2461036.500000000, A.D. 2025-Dec-27 00:00:00.0000, -2.009065861910203E+06, -4.142014692969164E+08, -1.373579758071437E+07,
2461043.500000000, A.D. 2026-Jan-03 00:00:00.0000, 8.060141845931776E+06, -4.143528486454543E+08, -1.415330742657024E+07,
2461050.500000000, A.D. 2026-Jan-10 00:00:00.0000, 1.812388119401864E+07, -4.142221775982718E+08, -1.456118142955136E+07,
2461057.500000000, A.D. 2026-Jan-17 00:00:00.0000, 2.817531736741808E+07, -4.138099553518039E+08, -1.495915617329526E+07,
2461064.500000000, A.D. 2026-Jan-24 00:00:00.0000, 3.820763860663845E+07, -4.131167951244576E+08, -1.534697299449128E+07,
2461071.500000000, A.D. 2026-Jan-31 00:00:00.0000, 4.821405516802491E+07, -4.121434235597041E+08, -1.572437792210266E+07,
2461078.500000000, A.D. 2026-Feb-07 00:00:00.0000, 5.818779834170222E+07, -4.108906804497563E+08, -1.609112163958627E+07,
2461085.500000000, A.D. 2026-Feb-14 00:00:00.0000, 6.812211978580055E+07, -4.093595187954042E+08, -1.644695949468809E+07,
2461092.500000000, A.D. 2026-Feb-21 00:00:00.0000, 7.801029156962694E+07, -4.075510046240247E+08, -1.679165154518223E+07,
2461099.500000000, A.D. 2026-Feb-28 00:00:00.0000, 8.784560584610145E+07, -4.054663154100443E+08, -1.712496244675729E+07,
2461106.500000000, A.D. 2026-Mar-07 00:00:00.0000, 9.762137210064857E+07, -4.031067390440827E+08, -1.744666115364605E+07,
2461113.500000000, A.D. 2026-Mar-14 00:00:00.0000, 1.073309147595091E+08, -4.004736756798767E+08, -1.775652087740266E+07,
2461120.500000000, A.D. 2026-Mar-21 00:00:00.0000, 1.169675729484058E+08, -3.975686395599311E+08, -1.805431923073265E+07,
2461127.500000000, A.D. 2026-Mar-28 00:00:00.0000, 1.265247003995424E+08, -3.943932597913387E+08, -1.833983828814182E+07,
2461134.500000000, A.D. 2026-Apr-04 00:00:00.0000, 1.359956649102149E+08, -3.909492810370305E+08, -1.861286458702636E+07,
2461141.500000000, A.D. 2026-Apr-11 00:00:00.0000, 1.453738476340736E+08, -3.872385644818352E+08, -1.887318912380818E+07,
2461148.500000000, A.D. 2026-Apr-18 00:00:00.0000, 1.546526423715368E+08, -3.832630890794510E+08, -1.912060736033157E+07,
2461155.500000000, A.D. 2026-Apr-25 00:00:00.0000, 1.638254549125288E+08, -3.790249530646473E+08, -1.935491924360111E+07,
2461162.500000000, A.D. 2026-May-02 00:00:00.0000, 1.728857024702205E+08, -3.745263757587931E+08, -1.957592924424155E+07,
2461169.500000000, A.D. 2026-May-09 00:00:00.0000, 1.818268133396006E+08, -3.697696997336834E+08, -1.978344643073104E+07,
2461176.500000000, A.D. 2026-May-16 00:00:00.0000, 1.906422271688760E+08, -3.647573931954497E+08, -1.997728460300514E+07,
2461183.500000000, A.D. 2026-May-23 00:00:00.0000, 1.993253959052263E+08, -3.594920515674025E+08, -2.015726240687668E+07,
2461190.500000000, A.D. 2026-May-30 00:00:00.0000, 2.078697833451199E+08, -3.539763979527354E+08, -2.032320321282929E+07,
2461197.500000000, A.D. 2026-Jun-06 00:00:00.0000, 2.162688629803365E+08, -3.482132857486452E+08, -2.047493499803631E+07,
2461204.500000000, A.D. 2026-Jun-13 00:00:00.0000, 2.245161178160027E+08, -3.422057032102646E+08, -2.061229055216923E+07,
2461211.500000000, A.D. 2026-Jun-20 00:00:00.0000, 2.326050416715437E+08, -3.359567770375977E+08, -2.073510772258946E+07,
2461218.500000000, A.D. 2026-Jun-27 00:00:00.0000, 2.405291402780710E+08, -3.294697753252105E+08, -2.084322957164094E+07,
2461225.500000000, A.D. 2026-Jul-04 00:00:00.0000, 2.482819321840414E+08, -3.227481106487847E+08, -2.093650451011446E+07,
2461232.500000000, A.D. 2026-Jul-11 00:00:00.0000, 2.558569497355261E+08, -3.157953434192143E+08, -2.101478644172643E+07,
2461239.500000000, A.D. 2026-Jul-18 00:00:00.0000, 2.632477402365265E+08, -3.086151854770290E+08, -2.107793492576988E+07,
2461246.500000000, A.D. 2026-Jul-25 00:00:00.0000, 2.704478673263826E+08, -3.012115039222562E+08, -2.112581536065622E+07,
2461253.500000000, A.D. 2026-Aug-01 00:00:00.0000, 2.774509126349156E+08, -2.935883252240722E+08, -2.115829919731160E+07,
2461260.500000000, A.D. 2026-Aug-08 00:00:00.0000, 2.842504779440109E+08, -2.857498396404859E+08, -2.117526420558377E+07,
2461267.500000000, A.D. 2026-Aug-15 00:00:00.0000, 2.908401882872451E+08, -2.777004054918870E+08, -2.117659479532258E+07,
2461274.500000000, A.D. 2026-Aug-22 00:00:00.0000, 2.972136952447731E+08, -2.694445520630382E+08, -2.116218222288197E+07,
2461281.500000000, A.D. 2026-Aug-29 00:00:00.0000, 3.033646781615017E+08, -2.609869825019065E+08, -2.113192458569822E+07,
$$EOE